<osm version="0.6" generator="geojsontoosm"><node id="-1" lat="54.701121" lon="20.498465"/><node id="-2" lat="54.697500000000005" lon="20.498786999999997"/><node id="-3" lat="54.69737000000001" lon="20.511887000000005"/><node id="-4" lat="54.701350000000005" lon="20.511286000000002"/><node id="-5" lat="54.701065" lon="20.497478"/><node id="-6" lat="54.697085" lon="20.497263"/><node id="-7" lat="54.696924" lon="20.503431999999997"/><node id="-8" lat="54.700030000000005" lon="20.505278"/><way id="-1"><nd ref="-1"/><nd ref="-2"/><nd ref="-3"/><nd ref="-4"/><nd ref="-1"/><tag k="landuse" v="retail"/><tag k="name" v="имя2"/><tag k="addr:housenumber" v="123"/><tag k="addr:street" v="Омская улица"/><tag k="addr:city" v="Калининград"/><tag k="addr:postcode" v="236039"/><tag k="website" v="jetmoney"/><tag k="description" v="pdl;doorstep"/></way><way id="-2"><nd ref="-5"/><nd ref="-6"/><nd ref="-7"/><nd ref="-8"/><nd ref="-5"/><tag k="landuse" v="retail"/><tag k="name" v="имя1"/><tag k="addr:housenumber" v="123"/><tag k="addr:street" v="Серпуховская улица"/><tag k="addr:city" v="Калининград"/><tag k="website" v="jetmoney"/><tag k="addr:postcode" v="236039"/><tag k="description" v="pdl"/></way></osm>